[{"OBJECT_NAME":"ASTROCAST-0401","OBJECT_ID":"2023-001DF","EPOCH":"2026-03-09T17:04:53.382144","MEAN_MOTION":15.26258462,"ECCENTRICITY":0.00081423,"INCLINATION":97.5547,"RA_OF_ASC_NODE":160.5206,"ARG_OF_PERICENTER":188.4231,"MEAN_ANOMALY":171.6872,"EPHEMERIS_TYPE":0,"CLASSIFICATION_TYPE":"U","NORAD_CAT_ID":55110,"ELEMENT_SET_NO":999,"REV_AT_EPOCH":17602,"BSTAR":0.00037868349,"MEAN_MOTION_DOT":9.75e-5,"MEAN_MOTION_DDOT":0},{"OBJECT_NAME":"TEVEL2-9","OBJECT_ID":"2025-052AD","EPOCH":"2026-03-09T16:51:18.321696","MEAN_MOTION":15.28633834,"ECCENTRICITY":0.000799,"INCLINATION":97.4057,"RA_OF_ASC_NODE":324.3929,"ARG_OF_PERICENTER":124.2475,"MEAN_ANOMALY":235.9522,"EPHEMERIS_TYPE":0,"CLASSIFICATION_TYPE":"U","NORAD_CAT_ID":63237,"ELEMENT_SET_NO":999,"REV_AT_EPOCH":5481,"BSTAR":0.00067240159,"MEAN_MOTION_DOT":0.00018694,"MEAN_MOTION_DDOT":0}]
